STARLINK-5132           
1 54007U 22125AV  26068.66358861  .00000603  00000+0  55956-4 0  9995
2 54007  53.2157 213.8839 0001232  76.9940 283.1190 15.08848065189465
STARLINK-5145           
1 54008U 22125AW  26068.66082086  .00000411  00000+0  43919-4 0  9992
2 54008  53.2175 203.8940 0001302  98.0229 262.0911 15.08838832189605
STARLINK-5099           
1 54009U 22125AX  26068.65990425 -.00000801  00000+0 -32273-4 0  9993
2 54009  53.2168 213.8605 0001107  78.7790 281.3326 15.08835518189464
STARLINK-5127           
1 54010U 22125AY  26068.65345447 -.00000332  00000+0 -27803-5 0  9996
2 54010  53.2177 203.8593 0001258  92.7743 267.3393 15.08838433189605
STARLINK-5124           
1 54011U 22125AZ  26068.64248706 -.00000792  00000+0 -31710-4 0  9997
2 54011  53.2173 204.4838 0001259  85.7158 274.3978 15.08838270189598
STARLINK-5126           
1 54012U 22125BA  26068.68293412  .00000166  00000+0  28520-4 0  9994
2 54012  53.2175 204.0275 0001216  88.3296 271.7835 15.08836882189609
STARLINK-5098           
1 54013U 22125BB  26068.69030267  .00001180  00000+0  92231-4 0  9990
2 54013  53.2187 204.0734 0001343  94.2534 265.8612 15.08838916189602
STARLINK-5055           
1 54015U 22125BD  26068.68662606 -.00000344  00000+0 -35263-5 0  9995
2 54015  53.2180 204.0465 0001177  89.7711 270.3416 15.08832430189607
STARLINK-5195           
1 54051U 22136A   26068.18065664  .00001373  00000+0  10433-3 0  9994
2 54051  53.2183 346.6526 0001641  90.4113 269.7068 15.08845078186763
STARLINK-5189           
1 54052U 22136B   26068.86140634 -.00000483  00000+0 -12291-4 0  9999
2 54052  53.2170 303.1630 0001009 105.9908 254.1195 15.08839365187432
STARLINK-5176           
1 54053U 22136C   26068.04449094 -.00001001  00000+0 -44797-4 0  9995
2 54053  53.2197 347.2250 0001527  91.8035 268.3132 15.08838035186742
STARLINK-5163           
1 54054U 22136D   26068.03712345 -.00000685  00000+0 -24931-4 0  9992
2 54054  53.2198 347.1773 0001372  79.6202 280.4944 15.08840045186741
STARLINK-5158           
1 54055U 22136E   26068.83569144 -.00000755  00000+0 -29344-4 0  9999
2 54055  53.2199 343.6314 0001487 124.4764 235.6369 15.08835620186863
STARLINK-5226           
1 54056U 22136F   26068.18425631 -.00001486  00000+0 -75279-4 0  9990
2 54056  53.2188 345.9755 0001358  95.2144 264.9003 15.08840093186770
STARLINK-5167           
1 54058U 22136H   26068.09231908 -.00001664  00000+0 -86491-4 0  9990
2 54058  53.2187 346.8102 0001380  80.8560 279.2588 15.08826452186752
STARLINK-5173           
1 54059U 22136J   26068.02976199 -.00001514  00000+0 -77070-4 0  9999
2 54059  53.2188 347.1316 0001228  87.0787 273.0345 15.08832788186747
