[{"OBJECT_NAME":"STARLINK-5132","OBJECT_ID":"2022-125AV","EPOCH":"2026-03-09T15:55:34.055904","MEAN_MOTION":15.08848065,"ECCENTRICITY":0.0001232,"INCLINATION":53.2157,"RA_OF_ASC_NODE":213.8839,"ARG_OF_PERICENTER":76.994,"MEAN_ANOMALY":283.119,"EPHEMERIS_TYPE":0,"CLASSIFICATION_TYPE":"U","NORAD_CAT_ID":54007,"ELEMENT_SET_NO":999,"REV_AT_EPOCH":18946,"BSTAR":5.5956e-5,"MEAN_MOTION_DOT":6.03e-6,"MEAN_MOTION_DDOT":0},{"OBJECT_NAME":"STARLINK-5145","OBJECT_ID":"2022-125AW","EPOCH":"2026-03-09T15:51:34.922304","MEAN_MOTION":15.08838832,"ECCENTRICITY":0.0001302,"INCLINATION":53.2175,"RA_OF_ASC_NODE":203.894,"ARG_OF_PERICENTER":98.0229,"MEAN_ANOMALY":262.0911,"EPHEMERIS_TYPE":0,"CLASSIFICATION_TYPE":"U","NORAD_CAT_ID":54008,"ELEMENT_SET_NO":999,"REV_AT_EPOCH":18960,"BSTAR":4.3919e-5,"MEAN_MOTION_DOT":4.11e-6,"MEAN_MOTION_DDOT":0},{"OBJECT_NAME":"STARLINK-5099","OBJECT_ID":"2022-125AX","EPOCH":"2026-03-09T15:50:15.727200","MEAN_MOTION":15.08835518,"ECCENTRICITY":0.0001107,"INCLINATION":53.2168,"RA_OF_ASC_NODE":213.8605,"ARG_OF_PERICENTER":78.779,"MEAN_ANOMALY":281.3326,"EPHEMERIS_TYPE":0,"CLASSIFICATION_TYPE":"U","NORAD_CAT_ID":54009,"ELEMENT_SET_NO":999,"REV_AT_EPOCH":18946,"BSTAR":-3.2273e-5,"MEAN_MOTION_DOT":-8.01e-6,"MEAN_MOTION_DDOT":0},{"OBJECT_NAME":"STARLINK-5127","OBJECT_ID":"2022-125AY","EPOCH":"2026-03-09T15:40:58.466208","MEAN_MOTION":15.08838433,"ECCENTRICITY":0.0001258,"INCLINATION":53.2177,"RA_OF_ASC_NODE":203.8593,"ARG_OF_PERICENTER":92.7743,"MEAN_ANOMALY":267.3393,"EPHEMERIS_TYPE":0,"CLASSIFICATION_TYPE":"U","NORAD_CAT_ID":54010,"ELEMENT_SET_NO":999,"REV_AT_EPOCH":18960,"BSTAR":-2.7803e-6,"MEAN_MOTION_DOT":-3.32e-6,"MEAN_MOTION_DDOT":0},{"OBJECT_NAME":"STARLINK-5124","OBJECT_ID":"2022-125AZ","EPOCH":"2026-03-09T15:25:10.881984","MEAN_MOTION":15.0883827,"ECCENTRICITY":0.0001259,"INCLINATION":53.2173,"RA_OF_ASC_NODE":204.4838,"ARG_OF_PERICENTER":85.7158,"MEAN_ANOMALY":274.3978,"EPHEMERIS_TYPE":0,"CLASSIFICATION_TYPE":"U","NORAD_CAT_ID":54011,"ELEMENT_SET_NO":999,"REV_AT_EPOCH":18959,"BSTAR":-3.171e-5,"MEAN_MOTION_DOT":-7.92e-6,"MEAN_MOTION_DDOT":0},{"OBJECT_NAME":"STARLINK-5126","OBJECT_ID":"2022-125BA","EPOCH":"2026-03-09T16:23:25.507968","MEAN_MOTION":15.08836882,"ECCENTRICITY":0.0001216,"INCLINATION":53.2175,"RA_OF_ASC_NODE":204.0275,"ARG_OF_PERICENTER":88.3296,"MEAN_ANOMALY":271.7835,"EPHEMERIS_TYPE":0,"CLASSIFICATION_TYPE":"U","NORAD_CAT_ID":54012,"ELEMENT_SET_NO":999,"REV_AT_EPOCH":18960,"BSTAR":2.852e-5,"MEAN_MOTION_DOT":1.66e-6,"MEAN_MOTION_DDOT":0},{"OBJECT_NAME":"STARLINK-5098","OBJECT_ID":"2022-125BB","EPOCH":"2026-03-09T16:34:02.150688","MEAN_MOTION":15.08838916,"ECCENTRICITY":0.0001343,"INCLINATION":53.2187,"RA_OF_ASC_NODE":204.0734,"ARG_OF_PERICENTER":94.2534,"MEAN_ANOMALY":265.8612,"EPHEMERIS_TYPE":0,"CLASSIFICATION_TYPE":"U","NORAD_CAT_ID":54013,"ELEMENT_SET_NO":999,"REV_AT_EPOCH":18960,"BSTAR":9.2231e-5,"MEAN_MOTION_DOT":1.18e-5,"MEAN_MOTION_DDOT":0},{"OBJECT_NAME":"STARLINK-5055","OBJECT_ID":"2022-125BD","EPOCH":"2026-03-09T16:28:44.491584","MEAN_MOTION":15.0883243,"ECCENTRICITY":0.0001177,"INCLINATION":53.218,"RA_OF_ASC_NODE":204.0465,"ARG_OF_PERICENTER":89.7711,"MEAN_ANOMALY":270.3416,"EPHEMERIS_TYPE":0,"CLASSIFICATION_TYPE":"U","NORAD_CAT_ID":54015,"ELEMENT_SET_NO":999,"REV_AT_EPOCH":18960,"BSTAR":-3.5263e-6,"MEAN_MOTION_DOT":-3.44e-6,"MEAN_MOTION_DDOT":0},{"OBJECT_NAME":"STARLINK-5195","OBJECT_ID":"2022-136A","EPOCH":"2026-03-09T04:20:08.733696","MEAN_MOTION":15.08845078,"ECCENTRICITY":0.00016414,"INCLINATION":53.2183,"RA_OF_ASC_NODE":346.6526,"ARG_OF_PERICENTER":90.4113,"MEAN_ANOMALY":269.7068,"EPHEMERIS_TYPE":0,"CLASSIFICATION_TYPE":"U","NORAD_CAT_ID":54051,"ELEMENT_SET_NO":999,"REV_AT_EPOCH":18676,"BSTAR":0.00010433477,"MEAN_MOTION_DOT":1.373e-5,"MEAN_MOTION_DDOT":0},{"OBJECT_NAME":"STARLINK-5189","OBJECT_ID":"2022-136B","EPOCH":"2026-03-09T20:40:25.507776","MEAN_MOTION":15.08839365,"ECCENTRICITY":0.0001009,"INCLINATION":53.217,"RA_OF_ASC_NODE":303.163,"ARG_OF_PERICENTER":105.9908,"MEAN_ANOMALY":254.1195,"EPHEMERIS_TYPE":0,"CLASSIFICATION_TYPE":"U","NORAD_CAT_ID":54052,"ELEMENT_SET_NO":999,"REV_AT_EPOCH":18743,"BSTAR":-1.2291e-5,"MEAN_MOTION_DOT":-4.83e-6,"MEAN_MOTION_DDOT":0},{"OBJECT_NAME":"STARLINK-5176","OBJECT_ID":"2022-136C","EPOCH":"2026-03-09T01:04:04.017216","MEAN_MOTION":15.08838035,"ECCENTRICITY":0.00015276,"INCLINATION":53.2197,"RA_OF_ASC_NODE":347.225,"ARG_OF_PERICENTER":91.8035,"MEAN_ANOMALY":268.3132,"EPHEMERIS_TYPE":0,"CLASSIFICATION_TYPE":"U","NORAD_CAT_ID":54053,"ELEMENT_SET_NO":999,"REV_AT_EPOCH":18674,"BSTAR":-4.4797028e-5,"MEAN_MOTION_DOT":-1.001e-5,"MEAN_MOTION_DDOT":0},{"OBJECT_NAME":"STARLINK-5163","OBJECT_ID":"2022-136D","EPOCH":"2026-03-09T00:53:27.466080","MEAN_MOTION":15.08840045,"ECCENTRICITY":0.00013723,"INCLINATION":53.2198,"RA_OF_ASC_NODE":347.1773,"ARG_OF_PERICENTER":79.6202,"MEAN_ANOMALY":280.4944,"EPHEMERIS_TYPE":0,"CLASSIFICATION_TYPE":"U","NORAD_CAT_ID":54054,"ELEMENT_SET_NO":999,"REV_AT_EPOCH":18674,"BSTAR":-2.4930766e-5,"MEAN_MOTION_DOT":-6.85e-6,"MEAN_MOTION_DDOT":0},{"OBJECT_NAME":"STARLINK-5158","OBJECT_ID":"2022-136E","EPOCH":"2026-03-09T20:03:23.740416","MEAN_MOTION":15.0883562,"ECCENTRICITY":0.0001487,"INCLINATION":53.2199,"RA_OF_ASC_NODE":343.6314,"ARG_OF_PERICENTER":124.4764,"MEAN_ANOMALY":235.6369,"EPHEMERIS_TYPE":0,"CLASSIFICATION_TYPE":"U","NORAD_CAT_ID":54055,"ELEMENT_SET_NO":999,"REV_AT_EPOCH":18686,"BSTAR":-2.9344e-5,"MEAN_MOTION_DOT":-7.55e-6,"MEAN_MOTION_DDOT":0},{"OBJECT_NAME":"STARLINK-5226","OBJECT_ID":"2022-136F","EPOCH":"2026-03-09T04:25:19.745184","MEAN_MOTION":15.08840093,"ECCENTRICITY":0.00013585,"INCLINATION":53.2188,"RA_OF_ASC_NODE":345.9755,"ARG_OF_PERICENTER":95.2144,"MEAN_ANOMALY":264.9003,"EPHEMERIS_TYPE":0,"CLASSIFICATION_TYPE":"U","NORAD_CAT_ID":54056,"ELEMENT_SET_NO":999,"REV_AT_EPOCH":18677,"BSTAR":-7.5279e-5,"MEAN_MOTION_DOT":-1.486e-5,"MEAN_MOTION_DDOT":0},{"OBJECT_NAME":"STARLINK-5167","OBJECT_ID":"2022-136H","EPOCH":"2026-03-09T02:12:56.368512","MEAN_MOTION":15.08826452,"ECCENTRICITY":0.000138,"INCLINATION":53.2187,"RA_OF_ASC_NODE":346.8102,"ARG_OF_PERICENTER":80.856,"MEAN_ANOMALY":279.2588,"EPHEMERIS_TYPE":0,"CLASSIFICATION_TYPE":"U","NORAD_CAT_ID":54058,"ELEMENT_SET_NO":999,"REV_AT_EPOCH":18675,"BSTAR":-8.6490862e-5,"MEAN_MOTION_DOT":-1.664e-5,"MEAN_MOTION_DDOT":0},{"OBJECT_NAME":"STARLINK-5173","OBJECT_ID":"2022-136J","EPOCH":"2026-03-09T00:42:51.435936","MEAN_MOTION":15.08832788,"ECCENTRICITY":0.00012283,"INCLINATION":53.2188,"RA_OF_ASC_NODE":347.1316,"ARG_OF_PERICENTER":87.0787,"MEAN_ANOMALY":273.0345,"EPHEMERIS_TYPE":0,"CLASSIFICATION_TYPE":"U","NORAD_CAT_ID":54059,"ELEMENT_SET_NO":999,"REV_AT_EPOCH":18674,"BSTAR":-7.706967e-5,"MEAN_MOTION_DOT":-1.514e-5,"MEAN_MOTION_DDOT":0}]
